start=new Date('2022-11-30T00:00:00.000Z').valueOf();
sats=[{"LAUNCH_DATE":"2020-04-22","MEAN_MOTION_DDOT":"0.0000000000000","INCLINATION":"53.0552","REF_FRAME":"TEME","RCS_SIZE":"LARGE","MEAN_ELEMENT_THEORY":"SGP4","MEAN_MOTION_DOT":"0.00001514","EPOCH":"2022-11-29T13:45:42.276672","OBJECT_ID":"2020-025L","COUNTRY_CODE":"US","APOAPSIS":"548.171","ARG_OF_PERICENTER":"77.5347","MEAN_MOTION":"15.06402250","RA_OF_ASC_NODE":"76.2004","SITE":"AFETR","PERIAPSIS":"546.243","REV_AT_EPOCH":"14480","GP_ID":"219108065","TLE_LINE2":"2 45541  53.0552  76.2004 0001392  77.5347 282.5798 15.06402250144801","TLE_LINE1":"1 45541U 20025L   22333.57340598  .00001514  00000-0  12050-3 0  9994","CENTER_NAME":"EARTH","ELEMENT_SET_NO":"999","OBJECT_NAME":"STARLINK-1369","PERIOD":"95.592","MEAN_ANOMALY":"282.5798","EPHEMERIS_TYPE":"0","SEMIMAJOR_AXIS":"6925.342","CLASSIFICATION_TYPE":"U","OBJECT_TYPE":"PAYLOAD","BSTAR":"0.00012050000000","FILE":"3673849","NORAD_CAT_ID":"45541","TIME_SYSTEM":"UTC","ECCENTRICITY":"0.00013920","DECAY_DATE":null},{"TLE_LINE1":"1 45542U 20025M   22333.54023853  .00001517  00000-0  12074-3 0  9993","GP_ID":"219107816","TLE_LINE2":"2 45542  53.0553  76.3509 0001463  83.3680 276.7475 15.06392653144800","REV_AT_EPOCH":"14480","PERIAPSIS":"546.223","SITE":"AFETR","RA_OF_ASC_NODE":"76.3509","ARG_OF_PERICENTER":"83.3680","MEAN_MOTION":"15.06392653","APOAPSIS":"548.249","COUNTRY_CODE":"US","OBJECT_ID":"2020-025M","MEAN_ELEMENT_THEORY":"SGP4","MEAN_MOTION_DOT":"0.00001517","EPOCH":"2022-11-29T12:57:56.608992","RCS_SIZE":"LARGE","REF_FRAME":"TEME","LAUNCH_DATE":"2020-04-22","INCLINATION":"53.0553","MEAN_MOTION_DDOT":"0.0000000000000","DECAY_DATE":null,"ECCENTRICITY":"0.00014630","TIME_SYSTEM":"UTC","FILE":"3673849","NORAD_CAT_ID":"45542","BSTAR":"0.00012074000000","OBJECT_TYPE":"PAYLOAD","CLASSIFICATION_TYPE":"U","SEMIMAJOR_AXIS":"6925.371","MEAN_ANOMALY":"276.7475","EPHEMERIS_TYPE":"0","PERIOD":"95.593","OBJECT_NAME":"STARLINK-1371","ELEMENT_SET_NO":"999","CENTER_NAME":"EARTH"},{"OBJECT_NAME":"STARLINK-1372","PERIOD":"95.592","CENTER_NAME":"EARTH","ELEMENT_SET_NO":"999","SEMIMAJOR_AXIS":"6925.354","MEAN_ANOMALY":"278.1936","EPHEMERIS_TYPE":"0","OBJECT_TYPE":"PAYLOAD","BSTAR":"0.00003705500000","CLASSIFICATION_TYPE":"U","ECCENTRICITY":"0.00015530","DECAY_DATE":null,"FILE":"3673849","NORAD_CAT_ID":"45543","TIME_SYSTEM":"UTC","REF_FRAME":"TEME","RCS_SIZE":"LARGE","INCLINATION":"53.0557","MEAN_MOTION_DDOT":"0.0000000000000","LAUNCH_DATE":"2020-04-22","COUNTRY_CODE":"US","APOAPSIS":"548.295","EPOCH":"2022-11-29T12:15:28.374912","MEAN_MOTION_DOT":"0.00000270","MEAN_ELEMENT_THEORY":"SGP4","OBJECT_ID":"2020-025N","SITE":"AFETR","PERIAPSIS":"546.144","MEAN_MOTION":"15.06398069","ARG_OF_PERICENTER":"81.9229","RA_OF_ASC_NODE":"76.4783","TLE_LINE2":"2 45543  53.0557  76.4783 0001553  81.9229 278.1936 15.06398069143896","GP_ID":"219109067","TLE_LINE1":"1 45543U 20025N   22333.51074508  .00000270  00000-0  37055-4 0  9996","REV_AT_EPOCH":"14389"},{"ELEMENT_SET_NO":"999","CENTER_NAME":"EARTH","PERIOD":"95.592","OBJECT_NAME":"STARLINK-1373","EPHEMERIS_TYPE":"0","MEAN_ANOMALY":"272.8824","SEMIMAJOR_AXIS":"6925.351","CLASSIFICATION_TYPE":"U","OBJECT_TYPE":"PAYLOAD","BSTAR":"0.00012770000000","TIME_SYSTEM":"UTC","NORAD_CAT_ID":"45544","FILE":"3673849","DECAY_DATE":null,"ECCENTRICITY":"0.00012300","LAUNCH_DATE":"2020-04-22","MEAN_MOTION_DDOT":"0.0000000000000","INCLINATION":"53.0557","RCS_SIZE":"LARGE","REF_FRAME":"TEME","OBJECT_ID":"2020-025P","MEAN_ELEMENT_THEORY":"SGP4","MEAN_MOTION_DOT":"0.00001621","EPOCH":"2022-11-29T14:17:33.028224","APOAPSIS":"548.068","COUNTRY_CODE":"US","RA_OF_ASC_NODE":"76.1022","ARG_OF_PERICENTER":"87.2306","MEAN_MOTION":"15.06399154","PERIAPSIS":"546.364","SITE":"AFETR","REV_AT_EPOCH":"14481","TLE_LINE1":"1 45544U 20025P   22333.59552116  .00001621  00000-0  12770-3 0  9998","GP_ID":"219108818","TLE_LINE2":"2 45544  53.0557  76.1022 0001230  87.2306 272.8824 15.06399154144813"},{"REV_AT_EPOCH":"14426","TLE_LINE1":"1 45545U 20025Q   22333.81299606  .00001170  00000-0  97409-4 0  9998","GP_ID":"219079606","TLE_LINE2":"2 45545  53.0561  75.1278 0001455  60.0829 300.0304 15.06396117144261","RA_OF_ASC_NODE":"75.1278","MEAN_MOTION":"15.06396117","ARG_OF_PERICENTER":"60.0829","PERIAPSIS":"546.218","SITE":"AFETR","OBJECT_ID":"2020-025Q","MEAN_MOTION_DOT":"0.00001170","MEAN_ELEMENT_THEORY":"SGP4","EPOCH":"2022-11-29T19:30:42.859584","APOAPSIS":"548.233","COUNTRY_CODE":"US","LAUNCH_DATE":"2020-04-22","INCLINATION":"53.0561","MEAN_MOTION_DDOT":"0.0000000000000","RCS_SIZE":"LARGE","REF_FRAME":"TEME","TIME_SYSTEM":"UTC","NORAD_CAT_ID":"45545","FILE":"3673472","DECAY_DATE":null,"ECCENTRICITY":"0.00014550","CLASSIFICATION_TYPE":"U","BSTAR":"0.00009740900000","OBJECT_TYPE":"PAYLOAD","MEAN_ANOMALY":"300.0304","EPHEMERIS_TYPE":"0","SEMIMAJOR_AXIS":"6925.360","ELEMENT_SET_NO":"999","CENTER_NAME":"EARTH","PERIOD":"95.592","OBJECT_NAME":"STARLINK-1374"},{"SITE":"AFETR","PERIAPSIS":"546.404","MEAN_MOTION":"15.06395813","ARG_OF_PERICENTER":"87.1824","RA_OF_ASC_NODE":"75.3691","TLE_LINE2":"2 45546  53.0539  75.3691 0001188  87.1824 272.9301 15.06395813144835","GP_ID":"219108316","TLE_LINE1":"1 45546U 20025R   22333.75770698  .00002515  00000-0  18767-3 0  9990","REV_AT_EPOCH":"14483","REF_FRAME":"TEME","RCS_SIZE":"LARGE","INCLINATION":"53.0539","MEAN_MOTION_DDOT":"0.0000000000000","LAUNCH_DATE":"2020-04-22","COUNTRY_CODE":"US","APOAPSIS":"548.049","EPOCH":"2022-11-29T18:11:05.883072","MEAN_ELEMENT_THEORY":"SGP4","MEAN_MOTION_DOT":"0.00002515","OBJECT_ID":"2020-025R","OBJECT_TYPE":"PAYLOAD","BSTAR":"0.00018767000000","CLASSIFICATION_TYPE":"U","ECCENTRICITY":"0.00011880","DECAY_DATE":null,"NORAD_CAT_ID":"45546","FILE":"3673849","TIME_SYSTEM":"UTC","OBJECT_NAME":"STARLINK-1375","PERIOD":"95.592","CENTER_NAME":"EARTH","ELEMENT_SET_NO":"999","SEMIMAJOR_AXIS":"6925.361","MEAN_ANOMALY":"272.9301","EPHEMERIS_TYPE":"0"},{"REF_FRAME":"TEME","RCS_SIZE":"LARGE","LAUNCH_DATE":"2020-04-22","MEAN_MOTION_DDOT":"0.0000000000000","INCLINATION":"53.0557","COUNTRY_CODE":"US","APOAPSIS":"548.029","MEAN_ELEMENT_THEORY":"SGP4","MEAN_MOTION_DOT":"0.00002453","EPOCH":"2022-11-29T13:19:09.912576","OBJECT_ID":"2020-025S","SITE":"AFETR","PERIAPSIS":"546.377","ARG_OF_PERICENTER":"80.2859","MEAN_MOTION":"15.06403430","RA_OF_ASC_NODE":"76.2892","GP_ID":"219108568","TLE_LINE2":"2 45547  53.0557  76.2892 0001193  80.2859 279.8264 15.06403430144814","TLE_LINE1":"1 45547U 20025S   22333.55497584  .00002453  00000-0  18351-3 0  9999","REV_AT_EPOCH":"14481","OBJECT_NAME":"STARLINK-1377","PERIOD":"95.592","CENTER_NAME":"EARTH","ELEMENT_SET_NO":"999","SEMIMAJOR_AXIS":"6925.338","EPHEMERIS_TYPE":"0","MEAN_ANOMALY":"279.8264","BSTAR":"0.00018351000000","OBJECT_TYPE":"PAYLOAD","CLASSIFICATION_TYPE":"U","ECCENTRICITY":"0.00011930","DECAY_DATE":null,"FILE":"3673849","NORAD_CAT_ID":"45547","TIME_SYSTEM":"UTC"},{"DECAY_DATE":null,"ECCENTRICITY":"0.00015090","TIME_SYSTEM":"UTC","NORAD_CAT_ID":"45548","FILE":"3673849","OBJECT_TYPE":"PAYLOAD","BSTAR":"0.00007724400000","CLASSIFICATION_TYPE":"U","SEMIMAJOR_AXIS":"6925.360","MEAN_ANOMALY":"299.1869","EPHEMERIS_TYPE":"0","PERIOD":"95.592","OBJECT_NAME":"STARLINK-1378","ELEMENT_SET_NO":"999","CENTER_NAME":"EARTH","TLE_LINE1":"1 45548U 20025T   22333.71347198  .00000869  00000-0  77244-4 0  9999","TLE_LINE2":"2 45548  53.0551  75.5655 0001509  60.9271 299.1869 15.06396383144827","GP_ID":"219109317","REV_AT_EPOCH":"14482","PERIAPSIS":"546.180","SITE":"AFETR","RA_OF_ASC_NODE":"75.5655","MEAN_MOTION":"15.06396383","ARG_OF_PERICENTER":"60.9271","APOAPSIS":"548.270","COUNTRY_CODE":"US","OBJECT_ID":"2020-025T","EPOCH":"2022-11-29T17:07:23.979072","MEAN_MOTION_DOT":"0.00000869","MEAN_ELEMENT_THEORY":"SGP4","RCS_SIZE":"LARGE","REF_FRAME":"TEME","MEAN_MOTION_DDOT":"0.0000000000000","INCLINATION":"53.0551","LAUNCH_DATE":"2020-04-22"},{"REV_AT_EPOCH":"14479","TLE_LINE2":"2 45550  53.0579  76.3667 0001425  86.9799 273.1353 15.06386161144791","GP_ID":"219108066","TLE_LINE1":"1 45550U 20025V   22333.53192502  .00001025  00000-0  87746-4 0  9992","MEAN_MOTION":"15.06386161","ARG_OF_PERICENTER":"86.9799","RA_OF_ASC_NODE":"76.3667","SITE":"AFETR","PERIAPSIS":"546.269","EPOCH":"2022-11-29T12:45:58.321728","MEAN_MOTION_DOT":"0.00001025","MEAN_ELEMENT_THEORY":"SGP4","OBJECT_ID":"2020-025V","COUNTRY_CODE":"US","APOAPSIS":"548.243","MEAN_MOTION_DDOT":"0.0000000000000","INCLINATION":"53.0579","LAUNCH_DATE":"2020-04-22","REF_FRAME":"TEME","RCS_SIZE":"LARGE","NORAD_CAT_ID":"45550","FILE":"3673849","TIME_SYSTEM":"UTC","ECCENTRICITY":"0.00014250","DECAY_DATE":null,"CLASSIFICATION_TYPE":"U","OBJECT_TYPE":"PAYLOAD","BSTAR":"0.00008774600000","MEAN_ANOMALY":"273.1353","EPHEMERIS_TYPE":"0","SEMIMAJOR_AXIS":"6925.391","CENTER_NAME":"EARTH","ELEMENT_SET_NO":"999","OBJECT_NAME":"STARLINK-1390","PERIOD":"95.593"},{"EPHEMERIS_TYPE":"0","MEAN_ANOMALY":"290.2133","SEMIMAJOR_AXIS":"6925.363","ELEMENT_SET_NO":"999","CENTER_NAME":"EARTH","PERIOD":"95.592","OBJECT_NAME":"STARLINK-1294","TIME_SYSTEM":"UTC","NORAD_CAT_ID":"45551","FILE":"3673336","DECAY_DATE":null,"ECCENTRICITY":"0.00012750","CLASSIFICATION_TYPE":"U","BSTAR":"0.00014148000000","OBJECT_TYPE":"PAYLOAD","OBJECT_ID":"2020-025W","MEAN_ELEMENT_THEORY":"SGP4","MEAN_MOTION_DOT":"0.00001826","EPOCH":"2022-11-29T12:49:58.289952","APOAPSIS":"548.111","COUNTRY_CODE":"US","LAUNCH_DATE":"2020-04-22","MEAN_MOTION_DDOT":"0.0000000000000","INCLINATION":"53.0562","RCS_SIZE":"LARGE","REF_FRAME":"TEME","REV_AT_EPOCH":"14508","TLE_LINE1":"1 45551U 20025W   22333.53470243  .00001826  00000-0  14148-3 0  9998","GP_ID":"219069198","TLE_LINE2":"2 45551  53.0562  56.3814 0001275  69.8994 290.2133 15.06395392145081","RA_OF_ASC_NODE":"56.3814","MEAN_MOTION":"15.06395392","ARG_OF_PERICENTER":"69.8994","PERIAPSIS":"546.345","SITE":"AFETR"}];
